[
  {
    "name": "Afghanistan",
    "flag": "ðŸ‡¦ðŸ‡«",
    "code": "AF",
    "dialCode": "93",
    "capital": "Kabul"
  },
  {
    "name": "Ã…land Islands",
    "flag": "ðŸ‡¦ðŸ‡½",
    "code": "AX",
    "dialCode": "358",
    "capital": "Mariehamn"
  },
  {
    "name": "Albania",
    "flag": "ðŸ‡¦ðŸ‡±",
    "code": "AL",
    "dialCode": "355",
    "capital": "Tirana"
  },
  {
    "name": "Algeria",
    "flag": "ðŸ‡©ðŸ‡¿",
    "code": "DZ",
    "dialCode": "213",
    "capital": "Algiers"
  },
  {
    "name": "American Samoa",
    "flag": "ðŸ‡¦ðŸ‡¸",
    "code": "AS",
    "dialCode": "1684",
    "capital": "Pago Pago"
  },
  {
    "name": "Andorra",
    "flag": "ðŸ‡¦ðŸ‡©",
    "code": "AD",
    "dialCode": "376",
    "capital": "Andorra la Vella"
  },
  {
    "name": "Angola",
    "flag": "ðŸ‡¦ðŸ‡´",
    "code": "AO",
    "dialCode": "244",
    "capital": "Luanda"
  },
  {
    "name": "Anguilla",
    "flag": "ðŸ‡¦ðŸ‡®",
    "code": "AI",
    "dialCode": "1264",
    "capital": "The Valley"
  },
  {
    "name": "Antarctica",
    "flag": "ðŸ‡¦ðŸ‡¶",
    "code": "AQ",
    "dialCode": "672",
    "capital": null
  },
  {
    "name": "Antigua and Barbuda",
    "flag": "ðŸ‡¦ðŸ‡¬",
    "code": "AG",
    "dialCode": "1268",
    "capital": "St. John's"
  },
  {
    "name": "Argentina",
    "flag": "ðŸ‡¦ðŸ‡·",
    "code": "AR",
    "dialCode": "54",
    "capital": "Buenos Aires"
  },
  {
    "name": "Armenia",
    "flag": "ðŸ‡¦ðŸ‡²",
    "code": "AM",
    "dialCode": "374",
    "capital": "Yerevan"
  },
  {
    "name": "Aruba",
    "flag": "ðŸ‡¦ðŸ‡¼",
    "code": "AW",
    "dialCode": "297",
    "capital": "Oranjestad"
  },
  {
    "name": "Australia",
    "flag": "ðŸ‡¦ðŸ‡º",
    "code": "AU",
    "dialCode": "61",
    "capital": "Canberra"
  },
  {
    "name": "Austria",
    "flag": "ðŸ‡¦ðŸ‡¹",
    "code": "AT",
    "dialCode": "43",
    "capital": "Vienne"
  },
  {
    "name": "Azerbaijan",
    "flag": "ðŸ‡¦ðŸ‡¿",
    "code": "AZ",
    "dialCode": "994",
    "capital": "Bakou"
  },
  {
    "name": "Bahamas",
    "flag": "ðŸ‡§ðŸ‡¸",
    "code": "BS",
    "dialCode": "1242",
    "capital": "Nassau"
  },
  {
    "name": "Bahrain",
    "flag": "ðŸ‡§ðŸ‡­",
    "code": "BH",
    "dialCode": "973",
    "capital": "Manama"
  },
  {
    "name": "Bangladesh",
    "flag": "ðŸ‡§ðŸ‡©",
    "code": "BD",
    "dialCode": "880",
    "capital": "Dhaka"
  },
  {
    "name": "Barbados",
    "flag": "ðŸ‡§ðŸ‡§",
    "code": "BB",
    "dialCode": "1246",
    "capital": "Bridgetown"
  },
  {
    "name": "Belarus",
    "flag": "ðŸ‡§ðŸ‡¾",
    "code": "BY",
    "dialCode": "375",
    "capital": "Minsk"
  },
  {
    "name": "Belgium",
    "flag": "ðŸ‡§ðŸ‡ª",
    "code": "BE",
    "dialCode": "32",
    "capital": "Brussels"
  },
  {
    "name": "Belize",
    "flag": "ðŸ‡§ðŸ‡¿",
    "code": "BZ",
    "dialCode": "501",
    "capital": "Belmopan"
  },
  {
    "name": "Benin",
    "flag": "ðŸ‡§ðŸ‡¯",
    "code": "BJ",
    "dialCode": "229",
    "capital": "Porto-Novo"
  },
  {
    "name": "Bermuda",
    "flag": "ðŸ‡§ðŸ‡²",
    "code": "BM",
    "dialCode": "1441",
    "capital": "Hamilton"
  },
  {
    "name": "Bhutan",
    "flag": "ðŸ‡§ðŸ‡¹",
    "code": "BT",
    "dialCode": "975",
    "capital": "Thimphu"
  },
  {
    "name": "Bolivia, Plurinational State of bolivia",
    "flag": "ðŸ‡§ðŸ‡´",
    "code": "BO",
    "dialCode": "591",
    "capital": "Sucre"
  },
  {
    "name": "Bosnia and Herzegovina",
    "flag": "ðŸ‡§ðŸ‡¦",
    "code": "BA",
    "dialCode": "387",
    "capital": "Sarajevo"
  },
  {
    "name": "Botswana",
    "flag": "ðŸ‡§ðŸ‡¼",
    "code": "BW",
    "dialCode": "267",
    "capital": "Gaborone"
  },
  {
    "name": "Bouvet Island",
    "flag": "ðŸ‡§ðŸ‡»",
    "code": "BV",
    "dialCode": "47",
    "capital": "null"
  },
  {
    "name": "Brazil",
    "flag": "ðŸ‡§ðŸ‡·",
    "code": "BR",
    "dialCode": "55",
    "capital": "BrasÃ­lia"
  },
  {
    "name": "British Indian Ocean Territory",
    "flag": "ðŸ‡®ðŸ‡´",
    "code": "IO",
    "dialCode": "246",
    "capital": "Diego Garcia"
  },
  {
    "name": "Brunei Darussalam",
    "flag": "ðŸ‡§ðŸ‡³",
    "code": "BN",
    "dialCode": "673",
    "capital": "Bandar Seri Begawan"
  },
  {
    "name": "Bulgaria",
    "flag": "ðŸ‡§ðŸ‡¬",
    "code": "BG",
    "dialCode": "359",
    "capital": "Sofia"
  },
  {
    "name": "Burkina Faso",
    "flag": "ðŸ‡§ðŸ‡«",
    "code": "BF",
    "dialCode": "226",
    "capital": "Ouagadougou"
  },
  {
    "name": "Burundi",
    "flag": "ðŸ‡§ðŸ‡®",
    "code": "BI",
    "dialCode": "257",
    "capital": "Bujumbura"
  },
  {
    "name": "Bahamas",
    "flag": "ðŸ‡§ðŸ‡¸",
    "code": "BS",
    "dialCode": "1242",
    "capital": "Nassau"
  },
  {
    "name": "Bahrain",
    "flag": "ðŸ‡§ðŸ‡­",
    "code": "BH",
    "dialCode": "973",
    "capital": "Manama"
  },
  {
    "name": "Bangladesh",
    "flag": "ðŸ‡§ðŸ‡©",
    "code": "BD",
    "dialCode": "880",
    "capital": "Dhaka"
  },
  {
    "name": "Barbados",
    "flag": "ðŸ‡§ðŸ‡§",
    "code": "BB",
    "dialCode": "1246",
    "capital": "Bridgetown"
  },
  {
    "name": "Belarus",
    "flag": "ðŸ‡§ðŸ‡¾",
    "code": "BY",
    "dialCode": "375",
    "capital": "Minsk"
  },
  {
    "name": "Belgium",
    "flag": "ðŸ‡§ðŸ‡ª",
    "code": "BE",
    "dialCode": "32",
    "capital": "Brussels"
  },
  {
    "name": "Belize",
    "flag": "ðŸ‡§ðŸ‡¿",
    "code": "BZ",
    "dialCode": "501",
    "capital": "Belmopan"
  },
  {
    "name": "Benin",
    "flag": "ðŸ‡§ðŸ‡¯",
    "code": "BJ",
    "dialCode": "229",
    "capital": "Porto-Novo"
  },
  {
    "name": "Bermuda",
    "flag": "ðŸ‡§ðŸ‡²",
    "code": "BM",
    "dialCode": "1441",
    "capital": "Hamilton"
  },
  {
    "name": "Bhutan",
    "flag": "ðŸ‡§ðŸ‡¹",
    "code": "BT",
    "dialCode": "975",
    "capital": "Thimphu"
  },
  {
    "name": "Bolivia, Plurinational State of bolivia",
    "flag": "ðŸ‡§ðŸ‡´",
    "code": "BO",
    "dialCode": "591",
    "capital": "La Paz"
  },
  {
    "name": "Bosnia and Herzegovina",
    "flag": "ðŸ‡§ðŸ‡¦",
    "code": "BA",
    "dialCode": "387",
    "capital": "Sarajevo"
  },
  {
    "name": "Botswana",
    "flag": "ðŸ‡§ðŸ‡¼",
    "code": "BW",
    "dialCode": "267",
    "capital": "Gaborone"
  },
  {
    "name": "Bouvet Island",
    "flag": "ðŸ‡§ðŸ‡»",
    "code": "BV",
    "dialCode": "47",
    "capital": "null"
  },
  {
    "name": "Brazil",
    "flag": "ðŸ‡§ðŸ‡·",
    "code": "BR",
    "dialCode": "55",
    "capital": "BrasÃ­lia"
  },
  {
    "name": "British Indian Ocean Territory",
    "flag": "ðŸ‡®ðŸ‡´",
    "code": "IO",
    "dialCode": "246",
    "capital": "Diego Garcia"
  },
  {
    "name": "Brunei Darussalam",
    "flag": "ðŸ‡§ðŸ‡³",
    "code": "BN",
    "dialCode": "673",
    "capital": "Bandar Seri Begawan"
  },
  {
    "name": "Bulgaria",
    "flag": "ðŸ‡§ðŸ‡¬",
    "code": "BG",
    "dialCode": "359",
    "capital": "Sofia"
  },
  {
    "name": "Burkina Faso",
    "flag": "ðŸ‡§ðŸ‡«",
    "code": "BF",
    "dialCode": "226",
    "capital": "Ouagadougou"
  },
  {
    "name": "Burundi",
    "flag": "ðŸ‡§ðŸ‡®",
    "code": "BI",
    "dialCode": "257",
    "capital": "Bujumbura"
  },
  {
    "name": "Cambodia",
    "flag": "ðŸ‡°ðŸ‡­",
    "code": "KH",
    "dialCode": "855",
    "capital": "Phnom Penh"
  },
  {
    "name": "Cameroon",
    "flag": "ðŸ‡¨ðŸ‡²",
    "code": "CM",
    "dialCode": "237",
    "capital": "Yaounde"
  },
  {
    "name": "Canada",
    "flag": "ðŸ‡¨ðŸ‡¦",
    "code": "CA",
    "dialCode": "1",
    "capital": "Ottawa"
  },
  {
    "name": "Cape Verde",
    "flag": "ðŸ‡¨ðŸ‡»",
    "code": "CV",
    "dialCode": "238",
    "capital": "Praia"
  },
  {
    "name": "Cayman Islands",
    "flag": "ðŸ‡°ðŸ‡¾",
    "code": "KY",
    "dialCode": "345",
    "capital": "George Town"
  },
  {
    "name": "Central African Republic",
    "flag": "ðŸ‡¨ðŸ‡«",
    "code": "CF",
    "dialCode": "236",
    "capital": "Bangui"
  },
  {
    "name": "Chad",
    "flag": "ðŸ‡¹ðŸ‡©",
    "code": "TD",
    "dialCode": "235",
    "capital": "N'Djamena"
  },
  {
    "name": "Chile",
    "flag": "ðŸ‡¨ðŸ‡±",
    "code": "CL",
    "dialCode": "56",
    "capital": "Santiago"
  },
  {
    "name": "China",
    "flag": "ðŸ‡¨ðŸ‡³",
    "code": "CN",
    "dialCode": "86",
    "capital": "Beijing"
  },
  {
    "name": "Christmas Island",
    "flag": "ðŸ‡¨ðŸ‡½",
    "code": "CX",
    "dialCode": "61",
    "capital": "Flying Fish Cove"
  },
  {
    "name": "Cocos (Keeling) Islands",
    "flag": "ðŸ‡¨ðŸ‡¨",
    "code": "CC",
    "dialCode": "61",
    "capital": "West Island"
  },
  {
    "name": "Colombia",
    "flag": "ðŸ‡¨ðŸ‡´",
    "code": "CO",
    "dialCode": "57",
    "capital": "Bogota"
  },
  {
    "name": "Comoros",
    "flag": "ðŸ‡°ðŸ‡²",
    "code": "KM",
    "dialCode": "269",
    "capital": "Moroni"
  },
  {
    "name": "Congo",
    "flag": "ðŸ‡¨ðŸ‡¬",
    "code": "CG",
    "dialCode": "242",
    "capital": "Brazzaville"
  },
  {
    "name": "Congo, The Democratic Republic of the Congo",
    "flag": "ðŸ‡¨ðŸ‡©",
    "code": "CD",
    "dialCode": "243",
    "capital": "Kinshasa"
  },
  {
    "name": "Cook Islands",
    "flag": "ðŸ‡¨ðŸ‡°",
    "code": "CK",
    "dialCode": "682",
    "capital": "Avarua"
  },
  {
    "name": "Costa Rica",
    "flag": "ðŸ‡¨ðŸ‡·",
    "code": "CR",
    "dialCode": "506",
    "capital": "San Jose"
  },
  {
    "name": "Cote d'Ivoire",
    "flag": "ðŸ‡¨ðŸ‡®",
    "code": "CI",
    "dialCode": "225",
    "capital": "Yamoussoukro"
  },
  {
    "name": "Croatia",
    "flag": "ðŸ‡­ðŸ‡·",
    "code": "HR",
    "dialCode": "385",
    "capital": "Zagreb"
  },
  {
    "name": "British Indian Ocean Territory",
    "flag": "ðŸ‡®ðŸ‡´",
    "code": "IO",
    "dialCode": "246",
    "capital": "Camp Thunder Cove"
  },
  {
    "name": "Brunei Darussalam",
    "flag": "ðŸ‡§ðŸ‡³",
    "code": "BN",
    "dialCode": "673",
    "capital": "Bandar Seri Begawan"
  },
  {
    "name": "Bulgaria",
    "flag": "ðŸ‡§ðŸ‡¬",
    "code": "BG",
    "dialCode": "359",
    "capital": "Sofia"
  },
  {
    "name": "Burkina Faso",
    "flag": "ðŸ‡§ðŸ‡«",
    "code": "BF",
    "dialCode": "226",
    "capital": "Ouagadougou"
  },
  {
    "name": "Burundi",
    "flag": "ðŸ‡§ðŸ‡®",
    "code": "BI",
    "dialCode": "257",
    "capital": "Bujumbura"
  },
  {
    "name": "Cuba",
    "flag": "ðŸ‡¨ðŸ‡º",
    "code": "CU",
    "dialCode": "53",
    "capital": "Havana"
  },
  {
    "name": "Cyprus",
    "flag": "ðŸ‡¨ðŸ‡¾",
    "code": "CY",
    "dialCode": "357",
    "capital": "Nicosia"
  },
  {
    "name": "Czech Republic",
    "flag": "ðŸ‡¨ðŸ‡¿",
    "code": "CZ",
    "dialCode": "420",
    "capital": "Prague"
  },
  {
    "name": "Denmark",
    "flag": "ðŸ‡©ðŸ‡°",
    "code": "DK",
    "dialCode": "45",
    "capital": "Copenhagen"
  },
  {
    "name": "Djibouti",
    "flag": "ðŸ‡©ðŸ‡¯",
    "code": "DJ",
    "dialCode": "253",
    "capital": "Djibouti"
  },
  {
    "name": "Dominica",
    "flag": "ðŸ‡©ðŸ‡²",
    "code": "DM",
    "dialCode": "1767",
    "capital": "Roseau"
  },
  {
    "name": "Dominican Republic",
    "flag": "ðŸ‡©ðŸ‡´",
    "code": "DO",
    "dialCode": "1849",
    "capital": "Santo Domingo"
  },
  {
    "name": "Ecuador",
    "flag": "ðŸ‡ªðŸ‡¨",
    "code": "EC",
    "dialCode": "593",
    "capital": "Quito"
  },
  {
    "name": "Egypt",
    "flag": "ðŸ‡ªðŸ‡¬",
    "code": "EG",
    "dialCode": "20",
    "capital": "Cairo"
  },
  {
    "name": "El Salvador",
    "flag": "ðŸ‡¸ðŸ‡»",
    "code": "SV",
    "dialCode": "503",
    "capital": "San Salvador"
  },
  {
    "name": "Equatorial Guinea",
    "flag": "ðŸ‡¬ðŸ‡¶",
    "code": "GQ",
    "dialCode": "240",
    "capital": "Malabo"
  },
  {
    "name": "Eritrea",
    "flag": "ðŸ‡ªðŸ‡·",
    "code": "ER",
    "dialCode": "291",
    "capital": "Asmara"
  },
  {
    "name": "Estonia",
    "flag": "ðŸ‡ªðŸ‡ª",
    "code": "EE",
    "dialCode": "372",
    "capital": "Tallinn"
  },
  {
    "name": "Ethiopia",
    "flag": "ðŸ‡ªðŸ‡¹",
    "code": "ET",
    "dialCode": "251",
    "capital": "Addis Ababa"
  },
  {
    "name": "Falkland Islands (Malvinas)",
    "flag": "ðŸ‡«ðŸ‡°",
    "code": "FK",
    "dialCode": "500",
    "capital": "Stanley"
  },
  {
    "name": "Faroe Islands",
    "flag": "ðŸ‡«ðŸ‡´",
    "code": "FO",
    "dialCode": "298",
    "capital": "TÃ³rshavn"
  },
  {
    "name": "Fiji",
    "flag": "ðŸ‡«ðŸ‡¯",
    "code": "FJ",
    "dialCode": "679",
    "capital": "Suva"
  },
  {
    "name": "Finland",
    "flag": "ðŸ‡«ðŸ‡®",
    "code": "FI",
    "dialCode": "358",
    "capital": "Helsinki"
  },
  {
    "name": "France",
    "flag": "ðŸ‡«ðŸ‡·",
    "code": "FR",
    "dialCode": "33",
    "capital": "Paris"
  },
  {
    "name": "French Guiana",
    "flag": "ðŸ‡¬ðŸ‡«",
    "code": "GF",
    "dialCode": "594",
    "capital": "Cayenne"
  },
  {
    "name": "French Polynesia",
    "flag": "ðŸ‡µðŸ‡«",
    "code": "PF",
    "dialCode": "689",
    "capital": "Papeete"
  },
  {
    "name": "French Southern Territories",
    "flag": "ðŸ‡¹ðŸ‡«",
    "code": "TF",
    "dialCode": "262",
    "capital": "Saint-Pierre"
  },
  {
    "name": "Gabon",
    "flag": "ðŸ‡¬ðŸ‡¦",
    "code": "GA",
    "dialCode": "241",
    "capital": "Libreville"
  },
  {
    "name": "Gambia",
    "flag": "ðŸ‡¬ðŸ‡²",
    "code": "GM",
    "dialCode": "220",
    "capital": "Banjul"
  },
  {
    "name": "Georgia",
    "flag": "ðŸ‡¬ðŸ‡ª",
    "code": "GE",
    "dialCode": "995",
    "capital": "Tbilisi"
  },
  {
    "name": "Germany",
    "flag": "ðŸ‡©ðŸ‡ª",
    "code": "DE",
    "dialCode": "49",
    "capital": "Berlin"
  },
  {
    "name": "Ghana",
    "flag": "ðŸ‡¬ðŸ‡­",
    "code": "GH",
    "dialCode": "233",
    "capital": "Accra"
  },
  {
    "name": "Gibraltar",
    "flag": "ðŸ‡¬ðŸ‡®",
    "code": "GI",
    "dialCode": "350",
    "capital": "Gibraltar"
  },
  {
    "name": "Greece",
    "flag": "ðŸ‡¬ðŸ‡·",
    "code": "GR",
    "dialCode": "30",
    "capital": "Athens"
  },
  {
    "name": "Greenland",
    "flag": "ðŸ‡¬ðŸ‡±",
    "code": "GL",
    "dialCode": "299",
    "capital": "Nuuk"
  },
  {
    "name": "Grenada",
    "flag": "ðŸ‡¬ðŸ‡©",
    "code": "GD",
    "dialCode": "1473",
    "capital": "St. George's"
  },
  {
    "name": "Guadeloupe",
    "flag": "ðŸ‡¬ðŸ‡µ",
    "code": "GP",
    "dialCode": "590",
    "capital": "Basse-Terre"
  },
  {
    "name": "Guam",
    "flag": "ðŸ‡¬ðŸ‡º",
    "code": "GU",
    "dialCode": "1671",
    "capital": "HagÃ¥tÃ±a"
  },
  {
    "name": "Guatemala",
    "flag": "ðŸ‡¬ðŸ‡¹",
    "code": "GT",
    "dialCode": "502",
    "capital": "Guatemala capital"
  },
  {
    "name": "Guernsey",
    "flag": "ðŸ‡¬ðŸ‡¬",
    "code": "GG",
    "dialCode": "44",
    "capital": "St. Peter Port"
  },
  {
    "name": "Guinea",
    "flag": "ðŸ‡¬ðŸ‡³",
    "code": "GN",
    "dialCode": "224",
    "capital": "Conakry"
  },
  {
    "name": "Guinea-Bissau",
    "flag": "ðŸ‡¬ðŸ‡¼",
    "code": "GW",
    "dialCode": "245",
    "capital": "Bissau"
  },
  {
    "name": "Guyana",
    "flag": "ðŸ‡¬ðŸ‡¾",
    "code": "GY",
    "dialCode": "592",
    "capital": "Georgetown"
  },
  {
    "name": "Haiti",
    "flag": "ðŸ‡­ðŸ‡¹",
    "code": "HT",
    "dialCode": "509",
    "capital": "Port-au-Prince"
  },
  {
    "name": "Heard Island and Mcdonald Islands",
    "flag": "ðŸ‡­ðŸ‡²",
    "code": "HM",
    "dialCode": "672",
    "capital": null
  },
  {
    "name": "Holy See (Vatican capital State)",
    "flag": "ðŸ‡»ðŸ‡¦",
    "code": "VA",
    "dialCode": "379",
    "capital": "Vatican capital"
  },
  {
    "name": "Honduras",
    "flag": "ðŸ‡­ðŸ‡³",
    "code": "HN",
    "dialCode": "504",
    "capital": "Tegucigalpa"
  },
  {
    "name": "Hong Kong",
    "flag": "ðŸ‡­ðŸ‡°",
    "code": "HK",
    "dialCode": "852",
    "capital": "Hong Kong"
  },
  {
    "name": "Hungary",
    "flag": "ðŸ‡­ðŸ‡º",
    "code": "HU",
    "dialCode": "36",
    "capital": "Budapest"
  },
  {
    "name": "Iceland",
    "flag": "ðŸ‡®ðŸ‡¸",
    "code": "IS",
    "dialCode": "354",
    "capital": "Reykjavik"
  },
  {
    "name": "India",
    "flag": "ðŸ‡®ðŸ‡³",
    "code": "IN",
    "dialCode": "91",
    "capital": "New Delhi"
  },
  {
    "name": "Indonesia",
    "flag": "ðŸ‡®ðŸ‡©",
    "code": "ID",
    "dialCode": "62",
    "capital": "Jakarta"
  },
  {
    "name": "Iran, Islamic Republic of Persian Gulf",
    "flag": "ðŸ‡®ðŸ‡·",
    "code": "IR",
    "dialCode": "98",
    "capital": "Tehran"
  },
  {
    "name": "Iraq",
    "flag": "ðŸ‡®ðŸ‡¶",
    "code": "IQ",
    "dialCode": "964",
    "capital": "Baghdad"
  },
  {
    "name": "Ireland",
    "flag": "ðŸ‡®ðŸ‡ª",
    "code": "IE",
    "dialCode": "353",
    "capital": "Dublin"
  },
  {
    "name": "Isle of Man",
    "flag": "ðŸ‡®ðŸ‡²",
    "code": "IM",
    "dialCode": "44",
    "capital": "Douglas"
  },
  {
    "name": "Israel",
    "flag": "ðŸ‡®ðŸ‡±",
    "code": "IL",
    "dialCode": "972",
    "capital": "Jerusalem"
  },
  {
    "name": "Italy",
    "flag": "ðŸ‡®ðŸ‡¹",
    "code": "IT",
    "dialCode": "39",
    "capital": "Rome"
  },
  {
    "name": "Jamaica",
    "flag": "ðŸ‡¯ðŸ‡²",
    "code": "JM",
    "dialCode": "1876",
    "capital": "Kingston"
  },
  {
    "name": "Japan",
    "flag": "ðŸ‡¯ðŸ‡µ",
    "code": "JP",
    "dialCode": "81",
    "capital": "Tokyo"
  },
  {
    "name": "Jersey",
    "flag": "ðŸ‡¯ðŸ‡ª",
    "code": "JE",
    "dialCode": "44",
    "capital": "Saint Helier"
  },
  {
    "name": "Jordan",
    "flag": "ðŸ‡¯ðŸ‡´",
    "code": "JO",
    "dialCode": "962",
    "capital": "Amman"
  },
  {
    "name": "Kazakhstan",
    "flag": "ðŸ‡°ðŸ‡¿",
    "code": "KZ",
    "dialCode": "7",
    "capital": "Nur-Sultan"
  },
  {
    "name": "Kenya",
    "flag": "ðŸ‡°ðŸ‡ª",
    "code": "KE",
    "dialCode": "254",
    "capital": "Nairobi"
  },
  {
    "name": "Kiribati",
    "flag": "ðŸ‡°ðŸ‡®",
    "code": "KI",
    "dialCode": "686",
    "capital": "Tarawa"
  },
  {
    "name": "Korea, Democratic People's Republic of Korea",
    "flag": "ðŸ‡°ðŸ‡µ",
    "code": "KP",
    "dialCode": "850",
    "capital": "Pyongyang"
  },
  {
    "name": "Korea, Republic of South Korea",
    "flag": "ðŸ‡°ðŸ‡·",
    "code": "KR",
    "dialCode": "82",
    "capital": "Seoul"
  },
  {
    "name": "Kosovo",
    "flag": "ðŸ‡½ðŸ‡°",
    "code": "XK",
    "dialCode": "383",
    "capital": "Pristina"
  },
  {
    "name": "Kuwait",
    "flag": "ðŸ‡°ðŸ‡¼",
    "code": "KW",
    "dialCode": "965",
    "capital": "Kuwait capital"
  },
  {
    "name": "Kyrgyzstan",
    "flag": "ðŸ‡°ðŸ‡¬",
    "code": "KG",
    "dialCode": "996",
    "capital": "Bishkek"
  },
  {
    "name": "Laos",
    "flag": "ðŸ‡±ðŸ‡¦",
    "code": "LA",
    "dialCode": "856",
    "capital": "Vientiane"
  },
  {
    "name": "Latvia",
    "flag": "ðŸ‡±ðŸ‡»",
    "code": "LV",
    "dialCode": "371",
    "capital": "Riga"
  },
  {
    "name": "Lebanon",
    "flag": "ðŸ‡±ðŸ‡§",
    "code": "LB",
    "dialCode": "961",
    "capital": "Beirut"
  },
  {
    "name": "Lesotho",
    "flag": "ðŸ‡±ðŸ‡¸",
    "code": "LS",
    "dialCode": "266",
    "capital": "Maseru"
  },
  {
    "name": "Liberia",
    "flag": "ðŸ‡±ðŸ‡·",
    "code": "LR",
    "dialCode": "231",
    "capital": "Monrovia"
  },
  {
    "name": "Libyan Arab Jamahiriya",
    "flag": "ðŸ‡±ðŸ‡¾",
    "code": "LY",
    "dialCode": "218",
    "capital": "Tripoli"
  },
  {
    "name": "Liechtenstein",
    "flag": "ðŸ‡±ðŸ‡®",
    "code": "LI",
    "dialCode": "423",
    "capital": "Vaduz"
  },
  {
    "name": "Lithuania",
    "flag": "ðŸ‡±ðŸ‡¹",
    "code": "LT",
    "dialCode": "370",
    "capital": "Vilnius"
  },
  {
    "name": "Luxembourg",
    "flag": "ðŸ‡±ðŸ‡º",
    "code": "LU",
    "dialCode": "352",
    "capital": "Luxembourg capital"
  },
  {
    "name": "Macao",
    "flag": "ðŸ‡²ðŸ‡´",
    "code": "MO",
    "dialCode": "853",
    "capital": "Macau"
  },
  {
    "name": "Macedonia",
    "flag": "ðŸ‡²ðŸ‡°",
    "code": "MK",
    "dialCode": "389",
    "capital": "Skopje"
  },
  {
    "name": "Madagascar",
    "flag": "ðŸ‡²ðŸ‡¬",
    "code": "MG",
    "dialCode": "261",
    "capital": "Antananarivo"
  },
  {
    "name": "Malawi",
    "flag": "ðŸ‡²ðŸ‡¼",
    "code": "MW",
    "dialCode": "265",
    "capital": "Lilongwe"
  },
  {
    "name": "Malaysia",
    "flag": "ðŸ‡²ðŸ‡¾",
    "code": "MY",
    "dialCode": "60",
    "capital": "Kuala Lumpur"
  },
  {
    "name": "Maldives",
    "flag": "ðŸ‡²ðŸ‡»",
    "code": "MV",
    "dialCode": "960",
    "capital": "MalÃ©"
  },
  {
    "name": "Mali",
    "flag": "ðŸ‡²ðŸ‡±",
    "code": "ML",
    "dialCode": "223",
    "capital": "Bamako"
  },
  {
    "name": "Malta",
    "flag": "ðŸ‡²ðŸ‡¹",
    "code": "MT",
    "dialCode": "356",
    "capital": "Valletta"
  },
  {
    "name": "Marshall Islands",
    "flag": "ðŸ‡²ðŸ‡­",
    "code": "MH",
    "dialCode": "692",
    "capital": "Majuro"
  },
  {
    "name": "Martinique",
    "flag": "ðŸ‡²ðŸ‡¶",
    "code": "MQ",
    "dialCode": "596",
    "capital": "Fort-de-France"
  },
  {
    "name": "Mauritania",
    "flag": "ðŸ‡²ðŸ‡·",
    "code": "MR",
    "dialCode": "222",
    "capital": "Nouakchott"
  },
  {
    "name": "Mauritius",
    "flag": "ðŸ‡²ðŸ‡º",
    "code": "MU",
    "dialCode": "230",
    "capital": "Port Louis"
  },
  {
    "name": "Mayotte",
    "flag": "ðŸ‡¾ðŸ‡¹",
    "code": "YT",
    "dialCode": "262",
    "capital": "Mamoudzou"
  },
  {
    "name": "Mexico",
    "flag": "ðŸ‡²ðŸ‡½",
    "code": "MX",
    "dialCode": "52",
    "capital": "Mexico capital"
  },
  {
    "name": "Micronesia, Federated States of Micronesia",
    "flag": "ðŸ‡«ðŸ‡²",
    "code": "FM",
    "dialCode": "691",
    "capital": "Palikir"
  },
  {
    "name": "Moldova",
    "flag": "ðŸ‡²ðŸ‡©",
    "code": "MD",
    "dialCode": "373",
    "capital": "Chisinau"
  },
  {
    "name": "Monaco",
    "flag": "ðŸ‡²ðŸ‡¨",
    "code": "MC",
    "dialCode": "377",
    "capital": "Monaco"
  },
  {
    "name": "Mongolia",
    "flag": "ðŸ‡²ðŸ‡³",
    "code": "MN",
    "dialCode": "976",
    "capital": "Ulaanbaatar"
  },
  {
    "name": "Montenegro",
    "flag": "ðŸ‡²ðŸ‡ª",
    "code": "ME",
    "dialCode": "382",
    "capital": "Podgorica"
  },
  {
    "name": "Montserrat",
    "flag": "ðŸ‡²ðŸ‡¸",
    "code": "MS",
    "dialCode": "1664",
    "capital": "Plymouth"
  },
  {
    "name": "Morocco",
    "flag": "ðŸ‡²ðŸ‡¦",
    "code": "MA",
    "dialCode": "212",
    "capital": "Rabat"
  },
  {
    "name": "Mozambique",
    "flag": "ðŸ‡²ðŸ‡¿",
    "code": "MZ",
    "dialCode": "258",
    "capital": "Maputo"
  },
  {
    "name": "Myanmar",
    "flag": "ðŸ‡²ðŸ‡²",
    "code": "MM",
    "dialCode": "95",
    "capital": "Naypyidaw"
  },
  {
    "name": "Namibia",
    "flag": "ðŸ‡³ðŸ‡¦",
    "code": "NA",
    "dialCode": "264",
    "capital": "Windhoek"
  },
  {
    "name": "Nauru",
    "flag": "ðŸ‡³ðŸ‡·",
    "code": "NR",
    "dialCode": "674",
    "capital": "Yaren"
  },
  {
    "name": "Nepal",
    "flag": "ðŸ‡³ðŸ‡µ",
    "code": "NP",
    "dialCode": "977",
    "capital": "Kathmandu"
  },
  {
    "name": "Netherlands",
    "flag": "ðŸ‡³ðŸ‡±",
    "code": "NL",
    "dialCode": "31",
    "capital": "Amsterdam"
  },
  {
    "name": "Netherlands Antilles",
    "flag": "",
    "code": "AN",
    "dialCode": "599",
    "capital": "Willemstad"
  },
  {
    "name": "New Caledonia",
    "flag": "ðŸ‡³ðŸ‡¨",
    "code": "NC",
    "dialCode": "687",
    "capital": "Noumea"
  },
  {
    "name": "New Zealand",
    "flag": "ðŸ‡³ðŸ‡¿",
    "code": "NZ",
    "dialCode": "64",
    "capital": "Wellington"
  },
  {
    "name": "Nicaragua",
    "flag": "ðŸ‡³ðŸ‡®",
    "code": "NI",
    "dialCode": "505",
    "capital": "Managua"
  },
  {
    "name": "Niger",
    "flag": "ðŸ‡³ðŸ‡ª",
    "code": "NE",
    "dialCode": "227",
    "capital": "Niamey"
  },
  {
    "name": "Nigeria",
    "flag": "ðŸ‡³ðŸ‡¬",
    "code": "NG",
    "dialCode": "234",
    "capital": "Abuja"
  },
  {
    "name": "Niue",
    "flag": "ðŸ‡³ðŸ‡º",
    "code": "NU",
    "dialCode": "683",
    "capital": "Alofi"
  },
  {
    "name": "Norfolk Island",
    "flag": "ðŸ‡³ðŸ‡«",
    "code": "NF",
    "dialCode": "672",
    "capital": "Kingston"
  },
  {
    "name": "Northern Mariana Islands",
    "flag": "ðŸ‡²ðŸ‡µ",
    "code": "MP",
    "dialCode": "1670",
    "capital": "Saipan"
  },
  {
    "name": "Norway",
    "flag": "ðŸ‡³ðŸ‡´",
    "code": "NO",
    "dialCode": "47",
    "capital": "Oslo"
  },
  {
    "name": "Oman",
    "flag": "ðŸ‡´ðŸ‡²",
    "code": "OM",
    "dialCode": "968",
    "capital": "Muscat"
  },
  {
    "name": "Pakistan",
    "flag": "ðŸ‡µðŸ‡°",
    "code": "PK",
    "dialCode": "92",
    "capital": "Islamabad"
  },
  {
    "name": "Palau",
    "flag": "ðŸ‡µðŸ‡¼",
    "code": "PW",
    "dialCode": "680",
    "capital": "Ngerulmud"
  },
  {
    "name": "Palestinian Territory, Occupied",
    "flag": "ðŸ‡µðŸ‡¸",
    "code": "PS",
    "dialCode": "970",
    "capital": "Ramallah"
  },
  {
    "name": "Panama",
    "flag": "ðŸ‡µðŸ‡¦",
    "code": "PA",
    "dialCode": "507",
    "capital": "Panama capital"
  },
  {
    "name": "Papua New Guinea",
    "flag": "ðŸ‡µðŸ‡¬",
    "code": "PG",
    "dialCode": "675",
    "capital": "Port Moresby"
  },
  {
    "name": "Paraguay",
    "flag": "ðŸ‡µðŸ‡¾",
    "code": "PY",
    "dialCode": "595",
    "capital": "Asuncion"
  },
  {
    "name": "Peru",
    "flag": "ðŸ‡µðŸ‡ª",
    "code": "PE",
    "dialCode": "51",
    "capital": "Lima"
  },
  {
    "name": "Philippines",
    "flag": "ðŸ‡µðŸ‡­",
    "code": "PH",
    "dialCode": "63",
    "capital": "Manila"
  },
  {
    "name": "Pitcairn",
    "flag": "ðŸ‡µðŸ‡³",
    "code": "PN",
    "dialCode": "64",
    "capital": "Adamstown"
  },
  {
    "name": "Poland",
    "flag": "ðŸ‡µðŸ‡±",
    "code": "PL",
    "dialCode": "48",
    "capital": "Warsaw"
  },
  {
    "name": "Portugal",
    "flag": "ðŸ‡µðŸ‡¹",
    "code": "PT",
    "dialCode": "351",
    "capital": "Lisbon"
  },
  {
    "name": "Puerto Rico",
    "flag": "ðŸ‡µðŸ‡·",
    "code": "PR",
    "dialCode": "1939",
    "capital": "San Juan"
  },
  {
    "name": "Qatar",
    "flag": "ðŸ‡¶ðŸ‡¦",
    "code": "QA",
    "dialCode": "974",
    "capital": "Doha"
  },
  {
    "name": "Romania",
    "flag": "ðŸ‡·ðŸ‡´",
    "code": "RO",
    "dialCode": "40",
    "capital": "Bucharest"
  },
  {
    "name": "Russia",
    "flag": "ðŸ‡·ðŸ‡º",
    "code": "RU",
    "dialCode": "7",
    "capital": "Moscow"
  },
  {
    "name": "Rwanda",
    "flag": "ðŸ‡·ðŸ‡¼",
    "code": "RW",
    "dialCode": "250",
    "capital": "Kigali"
  },
  {
    "name": "Reunion",
    "flag": "ðŸ‡·ðŸ‡ª",
    "code": "RE",
    "dialCode": "262",
    "capital": "St-Denis"
  },
  {
    "name": "Saint Barthelemy",
    "flag": "ðŸ‡§ðŸ‡±",
    "code": "BL",
    "dialCode": "590",
    "capital": "Gustavia"
  },
  {
    "name": "Saint Helena, Ascension and Tristan Da Cunha",
    "flag": "ðŸ‡¸ðŸ‡­",
    "code": "SH",
    "dialCode": "290",
    "capital": "Jamestown"
  },
  {
    "name": "Saint Kitts and Nevis",
    "flag": "ðŸ‡°ðŸ‡³",
    "code": "KN",
    "dialCode": "1869",
    "capital": "Basseterre"
  },
  {
    "name": "Saint Lucia",
    "flag": "ðŸ‡±ðŸ‡¨",
    "code": "LC",
    "dialCode": "1758",
    "capital": "Castries"
  },
  {
    "name": "Saint Martin",
    "flag": "ðŸ‡²ðŸ‡«",
    "code": "MF",
    "dialCode": "590",
    "capital": "Marigot"
  },
  {
    "name": "Saint Pierre and Miquelon",
    "flag": "ðŸ‡µðŸ‡²",
    "code": "PM",
    "dialCode": "508",
    "capital": "Saint-Pierre"
  },
  {
    "name": "Saint Vincent and the Grenadines",
    "flag": "ðŸ‡»ðŸ‡¨",
    "code": "VC",
    "dialCode": "1784",
    "capital": "Kingstown"
  },
  {
    "name": "Samoa",
    "flag": "ðŸ‡¼ðŸ‡¸",
    "code": "WS",
    "dialCode": "685",
    "capital": "Apia"
  },
  {
    "name": "San Marino",
    "flag": "ðŸ‡¸ðŸ‡²",
    "code": "SM",
    "dialCode": "378",
    "capital": "San Marino"
  },
  {
    "name": "Sao Tome and Principe",
    "flag": "ðŸ‡¸ðŸ‡¹",
    "code": "ST",
    "dialCode": "239",
    "capital": "SÃ£o TomÃ©"
  },
  {
    "name": "Saudi Arabia",
    "flag": "ðŸ‡¸ðŸ‡¦",
    "code": "SA",
    "dialCode": "966",
    "capital": "Riyadh"
  },
  {
    "name": "Senegal",
    "flag": "ðŸ‡¸ðŸ‡³",
    "code": "SN",
    "dialCode": "221",
    "capital": "Dakar"
  },
  {
    "name": "Serbia",
    "flag": "ðŸ‡·ðŸ‡¸",
    "code": "RS",
    "dialCode": "381",
    "capital": "Belgrade"
  },
  {
    "name": "Seychelles",
    "flag": "ðŸ‡¸ðŸ‡¨",
    "code": "SC",
    "dialCode": "248",
    "capital": "Victoria"
  },
  {
    "name": "Sierra Leone",
    "flag": "ðŸ‡¸ðŸ‡±",
    "code": "SL",
    "dialCode": "232",
    "capital": "Freetown"
  },
  {
    "name": "Singapore",
    "flag": "ðŸ‡¸ðŸ‡¬",
    "code": "SG",
    "dialCode": "65",
    "capital": "Singapore"
  },
  {
    "name": "Slovakia",
    "flag": "ðŸ‡¸ðŸ‡°",
    "code": "SK",
    "dialCode": "421",
    "capital": "Bratislava"
  },
  {
    "name": "Slovenia",
    "flag": "ðŸ‡¸ðŸ‡®",
    "code": "SI",
    "dialCode": "386",
    "capital": "Ljubljana"
  },
  {
    "name": "Solomon Islands",
    "flag": "ðŸ‡¸ðŸ‡§",
    "code": "SB",
    "dialCode": "677",
    "capital": "Honiara"
  },
  {
    "name": "Somalia",
    "flag": "ðŸ‡¸ðŸ‡´",
    "code": "SO",
    "dialCode": "252",
    "capital": "Mogadishu"
  },
  {
    "name": "South Africa",
    "flag": "ðŸ‡¿ðŸ‡¦",
    "code": "ZA",
    "dialCode": "27",
    "capital": "Pretoria (administrative), Cape Town (legislative), Bloemfontein (judiciary)"
  },
  {
    "name": "South Sudan",
    "flag": "ðŸ‡¸ðŸ‡¸",
    "code": "SS",
    "dialCode": "211",
    "capital": "Juba"
  },
  {
    "name": "South Georgia and the South Sandwich Islands",
    "flag": "ðŸ‡¬ðŸ‡¸",
    "code": "GS",
    "dialCode": "500",
    "capital": "King Edward Point"
  },
  {
    "name": "Spain",
    "flag": "ðŸ‡ªðŸ‡¸",
    "code": "ES",
    "dialCode": "34",
    "capital": "Madrid"
  },
  {
    "name": "Sri Lanka",
    "flag": "ðŸ‡±ðŸ‡°",
    "code": "LK",
    "dialCode": "94",
    "capital": "Sri Jayawardenepura Kotte (administrative), Colombo (commercial)"
  },
  {
    "name": "Sudan",
    "flag": "ðŸ‡¸ðŸ‡©",
    "code": "SD",
    "dialCode": "249",
    "capital": "Khartoum"
  },
  {
    "name": "Suri",
    "flag": "ðŸ‡¸ðŸ‡·",
    "code": "SR",
    "dialCode": "597",
    "capital": "Paramaribo"
  },
  {
    "name": "Svalbard and Jan Mayen",
    "flag": "ðŸ‡¸ðŸ‡¯",
    "code": "SJ",
    "dialCode": "47",
    "capital": "Longyearbyen"
  },
  {
    "name": "Swaziland",
    "flag": "ðŸ‡¸ðŸ‡¿",
    "code": "SZ",
    "dialCode": "268",
    "capital": "Lobamba (royal and legislative), Mbabane (administrative)"
  },
  {
    "name": "Sweden",
    "flag": "ðŸ‡¸ðŸ‡ª",
    "code": "SE",
    "dialCode": "46",
    "capital": "Stockholm"
  },
  {
    "name": "Switzerland",
    "flag": "ðŸ‡¨ðŸ‡­",
    "code": "CH",
    "dialCode": "41",
    "capital": "Bern"
  },
  {
    "name": "Syrian Arab Republic",
    "flag": "ðŸ‡¸ðŸ‡¾",
    "code": "SY",
    "dialCode": "963",
    "capital": "Damascus"
  },
  {
    "name": "Taiwan",
    "flag": "ðŸ‡¹ðŸ‡¼",
    "code": "TW",
    "dialCode": "886",
    "capital": "Taipei"
  },
  {
    "name": "Tajikistan",
    "flag": "ðŸ‡¹ðŸ‡¯",
    "code": "TJ",
    "dialCode": "992",
    "capital": "Dushanbe"
  },
  {
    "name": "Tanzania, United Republic of Tanzania",
    "flag": "ðŸ‡¹ðŸ‡¿",
    "code": "TZ",
    "dialCode": "255",
    "capital": "Dodoma"
  },
  {
    "name": "Thailand",
    "flag": "ðŸ‡¹ðŸ‡­",
    "code": "TH",
    "dialCode": "66",
    "capital": "Bangkok"
  },
  {
    "name": "Timor-Leste",
    "flag": "ðŸ‡¹ðŸ‡±",
    "code": "TL",
    "dialCode": "670",
    "capital": "Dili"
  },
  {
    "name": "Togo",
    "flag": "ðŸ‡¹ðŸ‡¬",
    "code": "TG",
    "dialCode": "228",
    "capital": "LomÃ©"
  },
  {
    "name": "Tokelau",
    "flag": "ðŸ‡¹ðŸ‡°",
    "code": "TK",
    "dialCode": "690",
    "capital": "Fakaofo"
  },
  {
    "name": "Tonga",
    "flag": "ðŸ‡¹ðŸ‡´",
    "code": "TO",
    "dialCode": "676",
    "capital": "Nuku'alofa"
  },
  {
    "name": "Trinidad and Tobago",
    "flag": "ðŸ‡¹ðŸ‡¹",
    "code": "TT",
    "dialCode": "1868",
    "capital": "Port of Spain"
  },
  {
    "name": "Tunisia",
    "flag": "ðŸ‡¹ðŸ‡³",
    "code": "TN",
    "dialCode": "216",
    "capital": "Tunis"
  },
  {
    "name": "Turkey",
    "flag": "ðŸ‡¹ðŸ‡·",
    "code": "TR",
    "dialCode": "90",
    "capital": "Ankara"
  },
  {
    "name": "Turkmenistan",
    "flag": "ðŸ‡¹ðŸ‡²",
    "code": "TM",
    "dialCode": "993",
    "capital": "Ashgabat"
  },
  {
    "name": "Turks and Caicos Islands",
    "flag": "ðŸ‡¹ðŸ‡¨",
    "code": "TC",
    "dialCode": "1649",
    "capital": "Cockburn Town"
  },
  {
    "name": "Tuvalu",
    "flag": "ðŸ‡¹ðŸ‡»",
    "code": "TV",
    "dialCode": "688",
    "capital": "Funafuti"
  },
  {
    "name": "Uganda",
    "flag": "ðŸ‡ºðŸ‡¬",
    "code": "UG",
    "dialCode": "256",
    "capital": "Kampala"
  },
  {
    "name": "Ukraine",
    "flag": "ðŸ‡ºðŸ‡¦",
    "code": "UA",
    "dialCode": "380",
    "capital": "Kyiv"
  },
  {
    "name": "United Arab Emirates",
    "flag": "ðŸ‡¦ðŸ‡ª",
    "code": "AE",
    "dialCode": "971",
    "capital": "Abu Dhabi"
  },
  {
    "name": "United Kingdom",
    "flag": "ðŸ‡¬ðŸ‡§",
    "code": "GB",
    "dialCode": "44",
    "capital": "London"
  },
  {
    "name": "United States",
    "flag": "ðŸ‡ºðŸ‡¸",
    "code": "US",
    "dialCode": "1",
    "capital": "Washington, D.C."
  },
  {
    "name": "Uruguay",
    "flag": "ðŸ‡ºðŸ‡¾",
    "code": "UY",
    "dialCode": "598",
    "capital": "Montevideo"
  },
  {
    "name": "Uzbekistan",
    "flag": "ðŸ‡ºðŸ‡¿",
    "code": "UZ",
    "dialCode": "998",
    "capital": "Tashkent"
  },
  {
    "name": "Vanuatu",
    "flag": "ðŸ‡»ðŸ‡º",
    "code": "VU",
    "dialCode": "678",
    "capital": "Port Vila"
  },
  {
    "name": "Venezuela, Bolivarian Republic of Venezuela",
    "flag": "ðŸ‡»ðŸ‡ª",
    "code": "VE",
    "dialCode": "58",
    "capital": "Caracas"
  },
  {
    "name": "Vietnam",
    "flag": "ðŸ‡»ðŸ‡³",
    "code": "VN",
    "dialCode": "84",
    "capital": "Hanoi"
  },
  {
    "name": "Virgin Islands, British",
    "flag": "ðŸ‡»ðŸ‡¬",
    "code": "VG",
    "dialCode": "1284",
    "capital": "Road Town"
  },
  {
    "name": "Virgin Islands, U.S.",
    "flag": "ðŸ‡»ðŸ‡®",
    "code": "VI",
    "dialCode": "1340",
    "capital": "Charlotte Amalie"
  },
  {
    "name": "Wallis and Futuna",
    "flag": "ðŸ‡¼ðŸ‡«",
    "code": "WF",
    "dialCode": "681",
    "capital": "Mata-Utu"
  },
  {
    "name": "Yemen",
    "flag": "ðŸ‡¾ðŸ‡ª",
    "code": "YE",
    "dialCode": "967",
    "capital": "Sana'a"
  },
  {
    "name": "Zambia",
    "flag": "ðŸ‡¿ðŸ‡²",
    "code": "ZM",
    "dialCode": "260",
    "capital": "Lusaka"
  },
  {
    "name": "Zimbabwe",
    "flag": "ðŸ‡¿ðŸ‡¼",
    "code": "ZW",
    "dialCode": "263",
    "capital": "Harare"
  }
]